STARLINK-2022           
1 47643U 21012Z   23185.07398800  .00001768  00000+0  13759-3 0  9993
2 47643  53.0552 129.2912 0001339  85.9247 274.1895 15.06386703132093
